[{"OBJECT_NAME":"JILIN-1 08","OBJECT_ID":"2018-008F","EPOCH":"2026-03-09T22:37:53.184288","MEAN_MOTION":15.32205976,"ECCENTRICITY":0.00081321,"INCLINATION":97.1902,"RA_OF_ASC_NODE":90.9961,"ARG_OF_PERICENTER":76.0646,"MEAN_ANOMALY":284.15,"EPHEMERIS_TYPE":0,"CLASSIFICATION_TYPE":"U","NORAD_CAT_ID":43160,"ELEMENT_SET_NO":999,"REV_AT_EPOCH":44974,"BSTAR":0.00036689195,"MEAN_MOTION_DOT":0.00011349,"MEAN_MOTION_DDOT":0},{"OBJECT_NAME":"STARLINK-35656","OBJECT_ID":"2025-257M","EPOCH":"2026-03-09T16:35:23.049600","MEAN_MOTION":15.30200233,"ECCENTRICITY":5.98e-5,"INCLINATION":53.1589,"RA_OF_ASC_NODE":219.8493,"ARG_OF_PERICENTER":71.1473,"MEAN_ANOMALY":288.9592,"EPHEMERIS_TYPE":0,"CLASSIFICATION_TYPE":"U","NORAD_CAT_ID":66391,"ELEMENT_SET_NO":999,"REV_AT_EPOCH":1979,"BSTAR":0.00072513138,"MEAN_MOTION_DOT":0.00021179,"MEAN_MOTION_DDOT":0}]
